CUBEBUG-2 (LO-74)
1 39440U 13066AA  26186.28247977  .00007070  00000-0  64944-3 0  9999
2 39440  97.8914 135.3391 0056357 329.1937  30.5979 14.93923546679691
FUNCUBE-1 (AO-73)
1 39444U 13066AE  26185.88720520  .00011803  00000-0  72371-3 0  9990
2 39444  97.8283 157.7053 0037406 141.4255 218.9656 15.09718097682339
UWE-3
1 39446U 13066AG  26186.32858404  .00004991  00000-0  42750-3 0  9993
2 39446  97.8704 142.5275 0047387 258.9822 100.6067 14.97160389680297
UNISAT-6
1 40012U 14033C   26186.35327024  .00003655  00000-0  39361-3 0  9991
2 40012  97.7903 338.7479 0045008  10.4150 349.7988 14.88338565648864
DUCHIFAT-1
1 40021U 14033M   26185.71700956  .00213562  00000-0  18351-2 0  9994
2 40021  98.0425 247.3916 0000551 273.4953  86.6243 15.68680703658498
LILACSAT-2
1 40908U 15049K   26186.58628251  .00020292  00000-0  33698-3 0  9997
2 40908  97.4624 224.1320 0007591 171.1055 189.0333 15.52101477598609
CAS-2T & KS-1Q
1 41847U 16066G   26186.17853426  .00001892  00000-0  27124-3 0  9991
2 41847  98.3815 261.7089 0342709  75.0754 288.8113 14.44754556507396
FOX-1B (AO-91)
1 43017U 17073E   26186.13259933  .00011506  00000-0  50043-3 0  9999
2 43017  97.4674  52.9808 0148145 266.6103  91.8173 15.12968517468106
FUNCUBE-3 (EO-79)/QB50P1
1 40025U 14033R   26186.00914170  .00014051  00000-0  68234-3 0  9994
2 40025  98.0965 198.4076 0009653 155.1243 205.0456 15.18550801655731
FOX-1A (AO-85)
1 40967U 15058D   26186.52933388  .00003388  00000-0  30429-3 0  9992
2 40967  64.7733 221.9785 0131619  49.4839 311.7650 14.91052495116304
DIWATA-2B (PO-101)
1 43678U 18084H   26186.57522192  .00004119  00000-0  33122-3 0  9994
2 43678  98.1210  23.5861 0013094 113.7687 246.4910 15.00538406418973
ESHAIL-2
1 43700U 18090A   26186.58179850  .00000158  00000-0  00000-0 0  9992
2 43700   0.0159  65.5704 0002304  78.7208  14.5406  1.00274128 27867
ITASAT-1
1 43786U 18099AE  26186.13530182  .00011495  00000-0  54667-3 0  9992
2 43786  97.4014 237.2902 0010725 291.2868  68.7221 15.19295486415636
FOX-1CLIFF (AO-95)
1 43770U 18099N   26186.09969102  .00021145  00000-0  79587-3 0  9999
2 43770  97.4372 246.2835 0006910 283.5806  76.4663 15.27119399415956
JY1SAT (JO-97)
1 43803U 18099AX  26186.16564301  .00029370  00000-0  88467-3 0  9991
2 43803  97.4114 249.0682 0005889 190.2408 169.8716 15.34276866416389
UWE-4
1 43880U 18111E   26186.33025580  .00049245  00000-0  96102-3 0  9999
2 43880  97.5836 115.5710 0004694 237.8732 122.2062 15.47336071413581
CAS-6 (TO-108)
1 44881U 19093C   26186.62284531  .00001883  00000-0  21825-3 0  9992
2 44881  97.7521 258.4052 0014405  31.8143 328.3940 14.86552746354153
DOSAAF-85 (RS-44)
1 44909U 19096E   26186.29953042  .00000031  00000-0  69228-4 0  9993
2 44909  82.5235 327.6688 0218587 102.0130 260.5561 12.79749003304667
SALSAT (TUBSAT 22)
1 46495U 20068K   26186.45874269  .00010448  00000-0  36136-3 0  9991
2 46495  97.8857 190.6390 0008285 230.3359 129.7150 15.30074171318152
CAMSAT XW-3 (CAS-9)
1 50466U 21131B   26186.65884556  .00000993  00000-0  32018-3 0  9997
2 50466  98.4986 278.9492 0005085  54.5691 305.5972 14.41376977237772
ROBUSTA 1F (MTCUBE-2)
1 53109U 22080E   26186.23812326 -.00000003  00000-0  00000+0 0  9993
2 53109  70.1429 291.9681 0008935 285.8124  74.1550  6.42583233 93228
UMKA-1 (RS40S)
1 57172U 23091G   26186.58136605  .00008698  00000-0  39374-3 0  9994
2 57172  97.5033 245.2092 0013812  60.5152 299.7460 15.21046613166806
CUBESX-HSE-3 (RS42S)
1 57178U 23091N   26186.33841913  .00021027  00000-0  68705-3 0  9999
2 57178  97.5076 252.1595 0010690  36.4558 323.7409 15.31708965167209
MONITOR-2 (RS39S)
1 57184U 23091U   26186.42832663  .00007861  00000-0  37712-3 0  9992
2 57184  97.5058 244.5943 0012259  55.5193 304.7198 15.19093656166728
SVYATOBOR-1 (RS60S)
1 57187U 23091X   26186.41055174  .00014009  00000-0  53114-3 0  9994
2 57187  97.5074 250.3311 0009748  37.9509 322.2415 15.26947642167096
VIZARD-METEO (RS38S)
1 57189U 23091Z   26186.38493385  .00024020  00000-0  67175-3 0  9998
2 57189  97.5077 256.2412 0006594  17.8766 342.2708 15.36649231167480
UTMN-2 (RS27S)
1 57203U 23091AP  26186.28088451  .00020569  00000-0  65579-3 0  9998
2 57203  97.5072 253.7572 0007768  26.0626 334.1005 15.32528055167310
POLYTECH UNIVERSE-3 (RS46S)
1 57191U 23091AB  26186.58479057  .00007738  00000-0  36843-3 0  9998
2 57191  97.5031 244.2539 0016744  68.7417 291.5604 15.19303590166741
