OBJECT_NAME,OBJECT_ID,EPOCH,MEAN_MOTION,ECCENTRICITY,INCLINATION,RA_OF_ASC_NODE,ARG_OF_PERICENTER,MEAN_ANOMALY,EPHEMERIS_TYPE,CLASSIFICATION_TYPE,NORAD_CAT_ID,ELEMENT_SET_NO,REV_AT_EPOCH,BSTAR,MEAN_MOTION_DOT,MEAN_MOTION_DDOT
CUBEBUG-2 (LO-74),2013-066AA,2026-07-05T06:46:46.252128,14.93923546,.0056357,97.8914,135.3391,329.1937,30.5979,0,U,39440,999,67969,.64944E-3,.707E-4,0
FUNCUBE-1 (AO-73),2013-066AE,2026-07-04T21:17:34.529280,15.09718097,.0037406,97.8283,157.7053,141.4255,218.9656,0,U,39444,999,68233,.72371E-3,.11803E-3,0
UWE-3,2013-066AG,2026-07-05T07:53:09.661056,14.97160389,.0047387,97.8704,142.5275,258.9822,100.6067,0,U,39446,999,68029,.4275E-3,.4991E-4,0
UNISAT-6,2014-033C,2026-07-05T08:28:42.548736,14.88338565,.0045008,97.7903,338.7479,10.4150,349.7988,0,U,40012,999,64886,.39361E-3,.3655E-4,0
DUCHIFAT-1,2014-033M,2026-07-04T17:12:29.625984,15.68680703,.0000551,98.0425,247.3916,273.4953,86.6243,0,U,40021,999,65849,.18351E-2,.213562E-2,0
QB50P1,2014-033R,2026-07-05T00:13:09.842880,15.18550801,.0009653,98.0965,198.4076,155.1243,205.0456,0,U,40025,999,65573,.68234E-3,.14051E-3,0
LILACSAT-2,2015-049K,2026-07-05T14:04:14.808864,15.52101477,.00075915,97.4624,224.1320,171.1055,189.0333,0,U,40908,999,59860,.3369845E-3,.20292E-3,0
FOX-1A (AO-85),2015-058D,2026-07-05T12:42:14.447232,14.91052495,.0131619,64.7733,221.9785,49.4839,311.7650,0,U,40967,999,11630,.30429E-3,.3388E-4,0
CAS-2T & KS-1Q,2016-066G,2026-07-05T04:17:05.360064,14.44754556,.0342709,98.3815,261.7089,75.0754,288.8113,0,U,41847,999,50739,.27124E-3,.1892E-4,0
RADFXSAT (FOX-1B),2017-073E,2026-07-05T03:10:56.582112,15.12968517,.0148145,97.4674,52.9808,266.6103,91.8173,0,U,43017,999,46810,.50043E-3,.11506E-3,0
DIWATA-2B,2018-084H,2026-07-05T13:48:19.173888,15.00538406,.00130939,98.1210,23.5861,113.7687,246.4910,0,U,43678,999,41897,.33121662E-3,.4119E-4,0
ES'HAIL 2,2018-090A,2026-07-05T13:57:47.390400,1.00274128,.0002304,0.0159,65.5704,78.7208,14.5406,0,U,43700,999,2786,0,.158E-5,0
FOX-1CLIFF (AO-95),2018-099N,2026-07-05T02:23:33.304128,15.27119399,.000691,97.4372,246.2835,283.5806,76.4663,0,U,43770,999,41595,.79587E-3,.21145E-3,0
ITASAT,2018-099AE,2026-07-05T03:14:50.077248,15.19295486,.0010725,97.4014,237.2902,291.2868,68.7221,0,U,43786,999,41563,.54667E-3,.11495E-3,0
JY1SAT (JO-97),2018-099AX,2026-07-05T03:58:31.556064,15.34276866,.0005889,97.4114,249.0682,190.2408,169.8716,0,U,43803,999,41638,.88467E-3,.2937E-3,0
UWE-4,2018-111E,2026-07-05T07:55:34.101120,15.47336071,.0004694,97.5836,115.5710,237.8732,122.2062,0,U,43880,999,41358,.96102E-3,.49245E-3,0
TIANYAN 01,2019-093C,2026-07-05T14:56:53.834784,14.86552746,.00144055,97.7521,258.4052,31.8143,328.3940,0,U,44881,999,35415,.21825492E-3,.1883E-4,0
RS-44 & BREEZE-KM R/B,2019-096E,2026-07-05T07:11:19.428288,12.79749003,.0218587,82.5235,327.6688,102.0130,260.5561,0,U,44909,999,30466,.69228E-4,.31E-6,0
SALSAT,2020-068K,2026-07-05T11:00:35.368416,15.30074171,.0008285,97.8857,190.6390,230.3359,129.7150,0,U,46495,999,31815,.36136E-3,.10448E-3,0
XW-3 (CAS-9),2021-131B,2026-07-05T15:48:44.256384,14.41376977,.00050848,98.4986,278.9492,54.5691,305.5972,0,U,50466,999,23777,.32017686E-3,.993E-5,0
GREENCUBE (IO-117),2022-080E,2026-07-05T05:42:53.850528,6.42583233,.00089348,70.1429,291.9681,285.8124,74.1550,0,U,53109,999,9322,0,-.3E-7,0
UMKA 1 (RS40S),2023-091G,2026-07-05T13:57:10.026720,15.21046613,.00138124,97.5033,245.2092,60.5152,299.7460,0,U,57172,999,16680,.3937394E-3,.8698E-4,0
CUBESX-HSE 3 (RS42S),2023-091N,2026-07-05T08:07:19.413696,15.31708965,.00106897,97.5076,252.1595,36.4558,323.7409,0,U,57178,999,16720,.6870455E-3,.21027E-3,0
MONITOR-2 (RS39S),2023-091U,2026-07-05T10:16:47.421696,15.19093656,.00122592,97.5058,244.5943,55.5193,304.7198,0,U,57184,999,16672,.37712301E-3,.7861E-4,0
SVYATOBOR 1 (RS60S),2023-091X,2026-07-05T09:51:11.670336,15.26947642,.00097485,97.5074,250.3311,37.9509,322.2415,0,U,57187,999,16709,.53114062E-3,.14009E-3,0
VIZARD-METEO (RS38S),2023-091Z,2026-07-05T09:14:18.285504,15.36649231,.00065939,97.5077,256.2412,17.8766,342.2708,0,U,57189,999,16748,.67174877E-3,.2402E-3,0
POLYTECH-UNIVERSE 3 (RS46S),2023-091AB,2026-07-05T14:02:05.905248,15.19303590,.00167436,97.5031,244.2539,68.7417,291.5604,0,U,57191,999,16674,.36842838E-3,.7738E-4,0
UTMN 2 (RS27S),2023-091AP,2026-07-05T06:44:28.422528,15.32528055,.00077677,97.5072,253.7572,26.0626,334.1005,0,U,57203,999,16731,.65579128E-3,.20569E-3,0
